STARLINK-1470           
1 45772U 20038AU  26068.60892913  .00054678  00000+0  19687-2 0  9990
2 45772  53.0480 174.6971 0002444  12.8687 347.2373 15.28074860317065
STARLINK-30431          
1 57852U 23141N   26068.82674254  .00000212  00000+0  19283-4 0  9999
2 57852  53.1592 283.1577 0000966 110.9615 249.1489 15.30189985140349
